ONEWEB-0495             
1 54115U 22138C   25363.45976638  .00000023  00000+0  25756-4 0  9992
2 54115  87.9208 338.7457 0002033  63.9375 296.1967 13.19724949154436
ONEWEB-0497             
1 54116U 22138D   25363.47240207  .00000073  00000+0  15019-3 0  9996
2 54116  87.9213 338.7305 0001789  80.6047 279.5288 13.19726065154425
ONEWEB-0499             
1 54117U 22138E   25363.45580480  .00000167  00000+0  38397-3 0  9993
2 54117  87.9210 338.7462 0001961  79.9166 280.2188 13.19727084154433
ONEWEB-0500             
1 54118U 22138F   25363.45819250  .00000059  00000+0  11436-3 0  9999
2 54118  87.9213 338.7337 0001702  84.7627 275.3700 13.19725501154445
ONEWEB-0501             
1 54119U 22138G   25363.48820712  .00000049  00000+0  91144-4 0  9992
2 54119  87.9219 338.7277 0001942  73.1619 286.9726 13.19725505154422
ONEWEB-0502             
1 54120U 22138H   25363.47397882  .00000059  00000+0  11610-3 0  9990
2 54120  87.9220 338.7118 0001989  77.5748 282.5607 13.19726154154445
ONEWEB-0503             
1 54121U 22138J   25363.46292356  .00000049  00000+0  88960-4 0  9992
2 54121  87.9221 338.7178 0002035  87.6742 272.4624 13.19725687154438
ONEWEB-0504             
1 54122U 22138K   25363.45029171  .00000089  00000+0  18979-3 0  9991
2 54122  87.9214 338.7356 0002005  78.5098 281.6260 13.19724962154443
ONEWEB-0505             
1 54123U 22138L   25363.37130961  .00000160  00000+0  36847-3 0  9997
2 54123  87.9221 338.7423 0002093  70.9257 289.2102 13.19725944154414
ONEWEB-0506             
1 54124U 22138M   25363.49767756  .00000112  00000+0  24762-3 0  9999
2 54124  87.9219 338.7145 0001888  79.0230 281.1115 13.19725717154429
ONEWEB-0507             
1 54125U 22138N   25363.44239619  .00000096  00000+0  20732-3 0  9991
2 54125  87.9202 338.7572 0001823  75.5422 284.5913 13.19725494154468
ONEWEB-0508             
1 54126U 22138P   25363.43922720  .00000028  00000+0  37313-4 0  9992
2 54126  87.9212 338.7532 0001819  72.2266 287.9065 13.19726082154448
ONEWEB-0509             
1 54127U 22138Q   25363.33814647  .00000078  00000+0  16231-3 0  9990
2 54127  87.9218 338.7455 0001836  78.9727 281.1612 13.19725712154402
ONEWEB-0510             
1 54128U 22138R   25363.36052976  .00000048  00000+0  86833-4 0  9996
2 54128  87.9220 308.3074 0001731  96.2191 263.9139 13.20771476156862
ONEWEB-0511             
1 54129U 22138S   25363.41080598  .00000091  00000+0  19617-3 0  9997
2 54129  87.9219 338.7350 0002086  86.0273 274.1098 13.19725874154446
ONEWEB-0512             
1 54130U 22138T   25363.47871441  .00000033  00000+0  51271-4 0  9999
2 54130  87.9210 338.7434 0002025  75.8492 284.2866 13.19726563154423
ONEWEB-0513             
1 54131U 22138U   25363.47769110 -.00000004  00000+0 -42037-4 0  9999
2 54131  87.9221 338.7034 0002572  73.1272 287.0143 13.20260990154323
